id,locatable_id,locatable_type,name,address,unit,city,state,zip_code,is_primary,lat,long,created_at,updated_at,show_on_organization
79925313121,84561980428,Letter choose eat do team board citizen.,"Miller, Barrera and Barry",954 Lawrence Isle Apt. 824, 824,Los Angeles,CA,95200,0,-20.184508,23.868930,2020-02-17 08:31:41,2020-06-22 15:52:05,1
83581131939,85554648545,Ability chair artist ahead rich debate.,Arias-Lin,5873 Yates Common,,Los Angeles,CA,93851,0,7.592566,-86.551608,2020-11-17 14:54:56,2020-11-19 02:29:27,0
89550716420,23211403485,Recognize sound around house skill deal.,Morrison-Smith,9014 Smith Court Suite 895, 895,Los Angeles,CA,96088,1,59.0467565,147.216884,2019-02-25 00:00:37,2021-01-18 02:26:04,1
26379870385,53820947108,Serious push necessary also.,Tucker Ltd,8159 Dennis Corner,,Los Angeles,CA,95798,1,67.3904965,-173.334306,2019-08-06 10:22:40,2020-11-30 00:28:17,0
48742907374,89990940955,Concern ask question.,Johnson-Foster,4399 Mills River Apt. 656, 656,Los Angeles,CA,92760,1,3.6436545,-122.331016,2020-07-13 17:54:05,2020-10-29 23:02:25,1
14092772403,63363749294,Their itself public your debate source name.,Luna and Sons,440 Kyle Terrace Suite 041, 041,Los Angeles,CA,94817,1,-66.1131005,-68.421071,2020-06-27 05:43:40,2020-12-18 19:22:10,1
46090431864,49638896874,Cover feeling themselves few.,White Ltd,0359 Meagan Station,,Los Angeles,CA,95094,1,-18.661000,43.350143,2020-03-19 12:13:38,2020-05-03 05:47:46,1
10631777621,33410210346,Republican include north create coach.,Thompson-Brown,95878 Kelly Curve Suite 485, 485,Los Angeles,CA,94885,1,-45.3020285,57.500476,2019-11-16 09:35:19,2020-12-21 03:00:26,0
84313863645,58563505528,Sign free house town real green least.,"Bowers, Adams and Costa",72494 Decker Fall,,Los Angeles,CA,93834,1,-47.084909,72.491001,2019-01-28 13:58:29,2019-11-22 05:47:40,0
88500574447,99203251997,Option follow check.,Torres and Sons,0658 Sanders Manors,,Los Angeles,CA,93882,0,24.986772,-176.044198,2020-02-05 14:43:07,2020-05-03 07:10:18,1
16494095049,74378075681,Person site call kind or.,Ramos Inc,813 Elizabeth Branch Suite 770, 770,Los Angeles,CA,92711,1,-67.533692,-18.237751,2019-12-24 15:03:14,2020-09-18 19:17:47,0
37643176466,89628723755,Lawyer must too again lot listen.,Johnson and Sons,2221 Bartlett Via,,Los Angeles,CA,90641,1,25.2070375,-107.169827,2020-12-24 19:44:54,2020-12-28 14:16:44,1
17072687142,62279876627,Grow national trade.,"Smith, Soto and Webster",310 Nichole Forge Suite 720, 720,Los Angeles,CA,93444,0,-2.7489295,-83.176977,2020-06-03 00:54:48,2021-01-31 19:01:47,0
38614022074,74632422276,Course morning eye down actually evidence.,Hernandez Inc,28448 Brent Crest Suite 265, 265,Los Angeles,CA,93626,1,68.472778,-178.710440,2019-07-06 15:02:02,2019-08-07 08:47:48,1
35305189509,11663808352,Serious conference want artist.,Soto-Lamb,15074 Chang Unions,,Los Angeles,CA,91379,1,82.9904015,107.025869,2020-11-19 20:05:48,2021-01-15 04:28:13,1
72677717271,59320934095,Current market nothing network mother piece something.,"Choi, Braun and Ayala",5043 Alicia Center,,Los Angeles,CA,94640,1,-38.5054155,-1.052107,2019-08-20 05:28:41,2021-02-23 22:39:55,0
87481343518,50078832079,Real gun quickly require project beyond.,Mosley LLC,268 Shaffer Parks Suite 207, 207,Los Angeles,CA,91931,1,-88.747503,89.749580,2019-09-12 11:31:16,2020-01-30 15:26:53,0
63320424544,85202520841,Result fear us chair once specific we southern.,"Beasley, Martinez and Morrison",569 Kenneth Pike Suite 191, 191,Los Angeles,CA,94646,0,-1.6733155,-139.999608,2020-02-09 10:12:00,2021-02-14 13:20:02,0
36300558288,71407798698,Stay expert reality night.,"Richard, Smith and Jensen",303 Wright Way Apt. 458, 458,Los Angeles,CA,93434,1,34.165486,28.977572,2019-11-15 01:22:48,2020-08-06 18:32:49,1
24236147121,55439697211,Prevent left someone.,Taylor-Perry,7307 Jackson Vista,,Los Angeles,CA,95629,1,-37.340258,-77.836647,2019-06-01 04:07:20,2021-02-27 07:57:32,1
10725388614,51958482112,Agree room type wish hundred believe chair fight.,"Smith, Goodman and Ingram",881 Eric Plain Apt. 826, 826,Los Angeles,CA,91663,0,-76.3837045,-136.331461,2020-11-02 13:33:53,2021-01-23 15:16:52,1
67497409541,54478493441,Boy force point suddenly technology south high himself.,Douglas Group,396 Durham Walks Suite 801, 801,Los Angeles,CA,95462,1,-79.4117475,72.587948,2019-11-01 09:19:43,2020-05-09 00:07:24,0
90632313700,67952985186,Approach now hear phone whole.,Fletcher Group,92724 Karen Ridge Apt. 713, 713,Los Angeles,CA,94956,1,-64.4178305,-137.695229,2020-09-15 10:32:51,2020-11-27 16:53:55,1
41066287651,20332993175,Administration approach easy around.,Robinson Group,47808 Donna Well Apt. 942, 942,Los Angeles,CA,92325,0,-8.8668355,-16.699160,2019-05-10 07:35:03,2020-11-13 12:35:37,0
18356156391,17857351493,Item fish nor team surface change in.,Morgan-Alvarado,72082 Gregory Burg,,Los Angeles,CA,94298,0,-29.324458,119.270577,2019-08-22 14:31:42,2020-10-16 11:39:23,1
20543562515,85508285912,Member start true hot couple.,"Edwards, Harris and Evans",605 Bailey Squares,,Los Angeles,CA,90147,1,-54.0388865,-101.263529,2019-09-09 04:56:03,2020-06-19 01:38:57,1
14895478171,41732759093,Practice compare training decade.,Henson Ltd,3888 Smith Via Apt. 356, 356,Los Angeles,CA,95104,0,11.511374,-3.936579,2019-05-21 10:16:17,2019-06-06 20:17:39,1
29391099562,59592043333,Service rest value media through impact box.,Macdonald-Johnson,23301 Gray View,,Los Angeles,CA,94858,1,-70.5383475,-93.258464,2020-09-01 16:35:00,2020-10-14 07:33:15,1
48595345518,42057972566,Be choice relate.,"Henry, Bryan and Hurst",63615 Jennifer Forge Apt. 925, 925,Los Angeles,CA,95777,1,-31.529415,148.101338,2019-04-30 15:48:46,2019-08-12 11:55:21,0
75948465121,18461277570,Course her foreign research relationship full arm.,Cunningham-Gregory,51825 Frost Mount,,Los Angeles,CA,95218,0,-81.8527615,-157.992974,2020-02-04 21:05:50,2020-06-05 21:10:20,0
86153192242,78837847443,Media pattern father have less hotel describe.,Steele-Miller,63351 Angela Street Suite 890, 890,Los Angeles,CA,95969,0,46.018643,-145.565844,2019-04-27 14:03:54,2020-06-21 15:42:58,1
34320609804,43870947415,Future home article green mission.,Wilkerson and Sons,873 Lisa Court,,Los Angeles,CA,92960,0,29.0918155,89.597507,2020-02-06 18:07:15,2020-04-27 23:59:16,0
34307154500,90178557824,Half picture billion across.,Howell Ltd,656 Barnett Glen Apt. 699, 699,Los Angeles,CA,95631,1,72.1697945,-159.521787,2020-10-08 02:15:42,2021-01-06 16:56:34,1
35808706663,20932748739,We plant answer the meeting.,"West, Obrien and Everett",6031 Lindsay Centers Apt. 054, 054,Los Angeles,CA,93444,0,11.210529,7.273040,2019-01-23 10:59:11,2020-03-26 19:38:50,1
30900166588,15819690021,Unit him high yard.,Rodgers Inc,7732 Victoria Keys Apt. 511, 511,Los Angeles,CA,95011,0,76.2546665,73.088704,2020-11-13 12:59:36,2021-01-13 19:53:42,1
48696233998,35718682826,Matter wind occur talk rate on.,Holt-Miller,068 Laura Courts Apt. 931, 931,Los Angeles,CA,96036,1,-15.2332485,129.442010,2019-01-03 03:43:57,2020-07-13 20:02:30,1
14615460803,54292912712,School between population.,"Chen, White and Smith",8369 Taylor Isle,,Los Angeles,CA,94820,1,59.858939,-179.312985,2019-01-26 01:52:40,2020-05-07 17:42:52,1
72021046675,97997120323,Computer again source remain upon area.,"Cuevas, Jones and Harris",226 Thomas Ramp,,Los Angeles,CA,94308,0,46.829094,-172.462370,2019-04-08 19:12:33,2020-03-12 00:41:35,0
17125108816,70678103987,Care middle doctor surface.,"Shaffer, Harvey and Buck",896 Schneider Forges Apt. 670, 670,Los Angeles,CA,94134,1,48.9228305,65.713109,2019-05-28 13:08:22,2019-12-12 13:08:43,0
76232758508,89962118915,Popular south central under decade.,Taylor-Davis,342 Robinson Field,,Los Angeles,CA,95450,1,-74.9559045,-177.823348,2019-04-06 13:41:00,2020-06-16 13:16:14,1
28058022466,38012138840,Person recent left week.,"Barnes, Clark and White",079 Daniels Mill Suite 133, 133,Los Angeles,CA,93070,0,77.047185,34.885169,2019-10-25 08:27:29,2020-02-27 05:03:37,1
58017042496,63556749500,Many heavy write indeed never rule century.,"Simpson, Lewis and Brown",2227 Jose Islands Apt. 783, 783,Los Angeles,CA,95526,1,-28.8534535,139.205966,2019-07-23 21:39:29,2020-10-11 07:54:21,0
52679803407,86878312631,Become factor necessary hear PM strategy.,Crosby-Smith,16953 Thomas Light Apt. 352, 352,Los Angeles,CA,94195,0,-43.153592,-163.405312,2020-08-28 02:32:32,2020-11-09 09:59:06,1
63354963345,29482736242,Everything southern kitchen fine country.,Blair-Olson,091 Philip Branch,,Los Angeles,CA,94539,0,85.8888665,-89.796842,2021-01-29 16:49:15,2021-02-20 05:28:41,1
76603813839,34076246730,Important drug maintain evening movie type reflect.,Barnes-Herrera,518 Lindsey Stream Apt. 633, 633,Los Angeles,CA,91642,0,-79.0814465,114.182339,2019-03-25 10:23:14,2021-01-20 02:16:41,0
24643817738,32777159075,Describe place spend.,Warren-Tanner,761 King Causeway,,Los Angeles,CA,93078,1,-38.6830245,-141.258759,2020-09-24 09:27:43,2020-11-20 03:50:24,1
13022674489,74813257862,Itself still range.,Arias-Harris,4354 Karen Pines,,Los Angeles,CA,95215,1,76.4347855,35.273474,2019-09-21 18:17:33,2020-01-12 10:26:08,0
88095194909,63331889087,Pick toward treat pull.,"Love, Velazquez and Anderson",98148 Brown Summit Apt. 921, 921,Los Angeles,CA,94082,1,15.407038,-119.452249,2019-12-13 13:01:13,2020-10-02 11:47:54,1
61390847902,94701988024,Pay heavy PM.,Bryant-Dawson,04154 Berg Ports Apt. 311, 311,Los Angeles,CA,92533,0,22.296032,-96.372443,2021-01-02 01:56:39,2021-02-16 20:49:40,1
13415801752,44011073436,Ahead tend room sense continue wall us result.,"Snyder, Parker and Castillo",5208 Shields Crest Suite 226, 226,Los Angeles,CA,94376,0,-62.788976,135.463190,2021-01-31 03:58:04,2021-02-05 23:25:21,1
